[{"OBJECT_NAME":"STARLINK-5352","OBJECT_ID":"2023-061BE","EPOCH":"2026-03-09T14:19:27.631776","MEAN_MOTION":15.02532378,"ECCENTRICITY":0.0001751,"INCLINATION":43.0041,"RA_OF_ASC_NODE":172.5543,"ARG_OF_PERICENTER":274.7508,"MEAN_ANOMALY":85.3134,"EPHEMERIS_TYPE":0,"CLASSIFICATION_TYPE":"U","NORAD_CAT_ID":56426,"ELEMENT_SET_NO":999,"REV_AT_EPOCH":15703,"BSTAR":-3.74e-5,"MEAN_MOTION_DOT":-7.09e-6,"MEAN_MOTION_DDOT":0},{"OBJECT_NAME":"CZ-6A DEB","OBJECT_ID":"2024-140AET","EPOCH":"2026-03-09T12:52:08.504256","MEAN_MOTION":14.9565513,"ECCENTRICITY":0.00551091,"INCLINATION":88.9325,"RA_OF_ASC_NODE":275.873,"ARG_OF_PERICENTER":183.9615,"MEAN_ANOMALY":176.1189,"EPHEMERIS_TYPE":0,"CLASSIFICATION_TYPE":"U","NORAD_CAT_ID":64653,"ELEMENT_SET_NO":999,"REV_AT_EPOCH":7426,"BSTAR":0.0038297655,"MEAN_MOTION_DOT":0.00044109,"MEAN_MOTION_DDOT":0}]
